[{"OBJECT_NAME":"STARLINK-6134","OBJECT_ID":"2023-090K","EPOCH":"2026-03-09T20:16:50.646432","MEAN_MOTION":15.02533503,"ECCENTRICITY":0.0001195,"INCLINATION":43.0039,"RA_OF_ASC_NODE":274.0734,"ARG_OF_PERICENTER":270.6748,"MEAN_ANOMALY":89.3957,"EPHEMERIS_TYPE":0,"CLASSIFICATION_TYPE":"U","NORAD_CAT_ID":57110,"ELEMENT_SET_NO":999,"REV_AT_EPOCH":15043,"BSTAR":0.00010390364,"MEAN_MOTION_DOT":1.2e-5,"MEAN_MOTION_DDOT":0},{"OBJECT_NAME":"IMS-1","OBJECT_ID":"2008-021D","EPOCH":"2026-03-09T22:27:26.707392","MEAN_MOTION":15.03517095,"ECCENTRICITY":0.00068607,"INCLINATION":97.9418,"RA_OF_ASC_NODE":52.6663,"ARG_OF_PERICENTER":75.5168,"MEAN_ANOMALY":284.6817,"EPHEMERIS_TYPE":0,"CLASSIFICATION_TYPE":"U","NORAD_CAT_ID":32786,"ELEMENT_SET_NO":999,"REV_AT_EPOCH":96828,"BSTAR":0.00046947389,"MEAN_MOTION_DOT":6.344e-5,"MEAN_MOTION_DDOT":0}]
